STARLINK-32691          
1 62501U 25003Q   26068.96206829  .00035087  00000+0  12776-2 0  9995
2 62501  43.0004 287.3890 0000589   6.0113 354.0745 15.27604405 66708
TROLL                   
1 62658U 25009BB  26068.22522958  .00013174  00000+0  48220-3 0  9994
2 62658  97.3932 150.7169 0001816  59.1850 300.9568 15.28164315118170
